[{"OBJECT_NAME":"BEIDOU-3 G3 (PRN 143)","OBJECT_ID":"2020-040A","EPOCH":"2026-04-05T06:25:29.566848","MEAN_MOTION":1.00269679,"ECCENTRICITY":0.000458,"INCLINATION":2.2687,"RA_OF_ASC_NODE":67.227,"ARG_OF_PERICENTER":328.5008,"MEAN_ANOMALY":4.7695,"EPHEMERIS_TYPE":0,"CLASSIFICATION_TYPE":"U","NORAD_CAT_ID":45807,"ELEMENT_SET_NO":999,"REV_AT_EPOCH":2133,"BSTAR":0,"MEAN_MOTION_DOT":-3.51e-6,"MEAN_MOTION_DDOT":0},{"OBJECT_NAME":"GALAXY 30 (WAAS/PRN 135)","OBJECT_ID":"2020-056C","EPOCH":"2026-04-04T22:27:32.891040","MEAN_MOTION":1.00272177,"ECCENTRICITY":0.00024578,"INCLINATION":0.0165,"RA_OF_ASC_NODE":201.4199,"ARG_OF_PERICENTER":199.6088,"MEAN_ANOMALY":4.1053,"EPHEMERIS_TYPE":0,"CLASSIFICATION_TYPE":"U","NORAD_CAT_ID":46114,"ELEMENT_SET_NO":999,"REV_AT_EPOCH":2055,"BSTAR":0,"MEAN_MOTION_DOT":0,"MEAN_MOTION_DDOT":0},{"OBJECT_NAME":"QZS-1R (QZSS/PRN 196)","OBJECT_ID":"2021-096A","EPOCH":"2026-04-05T06:35:21.120864","MEAN_MOTION":1.00280796,"ECCENTRICITY":0.07500978,"INCLINATION":37.3126,"RA_OF_ASC_NODE":80.6561,"ARG_OF_PERICENTER":270.3991,"MEAN_ANOMALY":76.8352,"EPHEMERIS_TYPE":0,"CLASSIFICATION_TYPE":"U","NORAD_CAT_ID":49336,"ELEMENT_SET_NO":999,"REV_AT_EPOCH":1627,"BSTAR":0,"MEAN_MOTION_DOT":-2.4e-6,"MEAN_MOTION_DDOT":0},{"OBJECT_NAME":"QZS-6 (QZSS/PRN 200)","OBJECT_ID":"2025-023A","EPOCH":"2026-04-05T03:03:38.763072","MEAN_MOTION":1.00274,"ECCENTRICITY":0.00021078,"INCLINATION":0.034,"RA_OF_ASC_NODE":279.5348,"ARG_OF_PERICENTER":107.3337,"MEAN_ANOMALY":302.997,"EPHEMERIS_TYPE":0,"CLASSIFICATION_TYPE":"U","NORAD_CAT_ID":62876,"ELEMENT_SET_NO":999,"REV_AT_EPOCH":422,"BSTAR":0,"MEAN_MOTION_DOT":-2.33e-6,"MEAN_MOTION_DDOT":0}]
